{"type": "FeatureCollection", "features": [ {"type": "Feature", "properties": {"norad_id": 34579, "name": "COSMOS 2251 DEB", "group": "cosmos-2251-debris", "lat": 20.400463969463367, "lon": -108.45750283803206, "alt_km": 732.7051884214088, "timestamp": "2025-12-01T03:58:49.145824+00:00", "meta": {"OBJECT_NAME": "COSMOS 2251 DEB", "OBJECT_ID": "1993-036VR", "EPOCH": "2025-11-30T18:03:28.173888", "MEAN_MOTION": 14.45247446, "ECCENTRICITY": 0.002749, "INCLINATION": 74.0536, "RA_OF_ASC_NODE": 246.2077, "ARG_OF_PERICENTER": 316.6774, "MEAN_ANOMALY": 74.201, "EPHEMERIS_TYPE": 0, "CLASSIFICATION_TYPE": "U", "NORAD_CAT_ID": 34579, "ELEMENT_SET_NO": 999, "REV_AT_EPOCH": 88001, "BSTAR": 0.00047255, "MEAN_MOTION_DOT": 1.638e-05, "MEAN_MOTION_DDOT": 0, "GROUP": "cosmos-2251-debris"}, "tle": {"line1": "1 34579U 93036VR  25334.75240942  .00001638  00000+0  47255-3 0  9992", "line2": "2 34579  74.0536 246.2077 0027490 316.6774  74.2010 14.45247446880011"}}, "geometry": {"type": "Point", "coordinates": [-108.45750283803206, 20.400463969463367]}}, {"type": "Feature", "properties": {"norad_id": 34582, "name": "COSMOS 2251 DEB", "group": "cosmos-2251-debris", "lat": 40.5302620426576, "lon": -51.917554653873594, "alt_km": 710.740508798156, "timestamp": "2025-12-01T03:58:49.145836+00:00", "meta": {"OBJECT_NAME": "COSMOS 2251 DEB", "OBJECT_ID": "1993-036VU", "EPOCH": "2025-11-30T14:28:35.998752", "MEAN_MOTION": 14.43221714, "ECCENTRICITY": 0.0047244, "INCLINATION": 74.019, "RA_OF_ASC_NODE": 294.9453, "ARG_OF_PERICENTER": 48.0509, "MEAN_ANOMALY": 312.4659, "EPHEMERIS_TYPE": 0, "CLASSIFICATION_TYPE": "U", "NORAD_CAT_ID": 34582, "ELEMENT_SET_NO": 999, "REV_AT_EPOCH": 87772, "BSTAR": 0.00072391, "MEAN_MOTION_DOT": 2.442e-05, "MEAN_MOTION_DDOT": 0, "GROUP": "cosmos-2251-debris"}, "tle": {"line1": "1 34582U 93036VU  25334.60319443  .00002442  00000+0  72391-3 0  9996", "line2": "2 34582  74.0190 294.9453 0047244  48.0509 312.4659 14.43221714877728"}}, "geometry": {"type": "Point", "coordinates": [-51.917554653873594, 40.5302620426576]}}, {"type": "Feature", "properties": {"norad_id": 34588, "name": "COSMOS 2251 DEB", "group": "cosmos-2251-debris", "lat": 27.630539259448184, "lon": 101.08656073023903, "alt_km": 763.6021375511018, "timestamp": "2025-12-01T03:58:49.145847+00:00", "meta": {"OBJECT_NAME": "COSMOS 2251 DEB", "OBJECT_ID": "1993-036WA", "EPOCH": "2025-11-30T20:46:38.735904", "MEAN_MOTION": 14.41957173, "ECCENTRICITY": 0.0018812, "INCLINATION": 74.0427, "RA_OF_ASC_NODE": 290.2564, "ARG_OF_PERICENTER": 344.5144, "MEAN_ANOMALY": 49.1911, "EPHEMERIS_TYPE": 0, "CLASSIFICATION_TYPE": "U", "NORAD_CAT_ID": 34588, "ELEMENT_SET_NO": 999, "REV_AT_EPOCH": 87779, "BSTAR": 0.00051155, "MEAN_MOTION_DOT": 1.654e-05, "MEAN_MOTION_DDOT": 0, "GROUP": "cosmos-2251-debris"}, "tle": {"line1": "1 34588U 93036WA  25334.86572611  .00001654  00000+0  51155-3 0  9997", "line2": "2 34588  74.0427 290.2564 0018812 344.5144  49.1911 14.41957173877792"}}, "geometry": {"type": "Point", "coordinates": [101.08656073023903, 27.630539259448184]}}, {"type": "Feature", "properties": {"norad_id": 34589, "name": "COSMOS 2251 DEB", "group": "cosmos-2251-debris", "lat": 14.396784297094952, "lon": -108.49224864423418, "alt_km": 1089.3717780366005, "timestamp": "2025-12-01T03:58:49.145857+00:00", "meta": {"OBJECT_NAME": "COSMOS 2251 DEB", "OBJECT_ID": "1993-036WB", "EPOCH": "2025-11-30T06:32:53.724192", "MEAN_MOTION": 13.86039854, "ECCENTRICITY": 0.02515315, "INCLINATION": 73.9253, "RA_OF_ASC_NODE": 77.2733, "ARG_OF_PERICENTER": 23.1146, "MEAN_ANOMALY": 5.8842, "EPHEMERIS_TYPE": 0, "CLASSIFICATION_TYPE": "U", "NORAD_CAT_ID": 34589, "ELEMENT_SET_NO": 999, "REV_AT_EPOCH": 84539, "BSTAR": 0.00029490914, "MEAN_MOTION_DOT": 4.12e-06, "MEAN_MOTION_DDOT": 0, "GROUP": "cosmos-2251-debris"}, "tle": {"line1": "1 34589U 93036WB  25334.27284403  .00000412  00000+0  29491-3 0  9991", "line2": "2 34589  73.9253  77.2733 0251531  23.1146   5.8842 13.86039854845396"}}, "geometry": {"type": "Point", "coordinates": [-108.49224864423418, 14.396784297094952]}}, {"type": "Feature", "properties": {"norad_id": 34590, "name": "COSMOS 2251 DEB", "group": "cosmos-2251-debris", "lat": 13.571859112426305, "lon": 160.48593754454683, "alt_km": 678.4104926951532, "timestamp": "2025-12-01T03:58:49.145874+00:00", "meta": {"OBJECT_NAME": "COSMOS 2251 DEB", "OBJECT_ID": "1993-036WC", "EPOCH": "2025-11-30T11:24:22.158144", "MEAN_MOTION": 14.5480349, "ECCENTRICITY": 0.006811, "INCLINATION": 74.0437, "RA_OF_ASC_NODE": 345.7522, "ARG_OF_PERICENTER": 118.934, "MEAN_ANOMALY": 30.9049, "EPHEMERIS_TYPE": 0, "CLASSIFICATION_TYPE": "U", "NORAD_CAT_ID": 34590, "ELEMENT_SET_NO": 999, "REV_AT_EPOCH": 88942, "BSTAR": 0.00012363084, "MEAN_MOTION_DOT": 5.17e-06, "MEAN_MOTION_DDOT": 0, "GROUP": "cosmos-2251-debris"}, "tle": {"line1": "1 34590U 93036WC  25334.47525646  .00000517  00000+0  12363-3 0  9998", "line2": "2 34590  74.0437 345.7522 0068110 118.9340  30.9049 14.54803490889422"}}, "geometry": {"type": "Point", "coordinates": [160.48593754454683, 13.571859112426305]}}, {"type": "Feature", "properties": {"norad_id": 34609, "name": "COSMOS 2251 DEB", "group": "cosmos-2251-debris", "lat": -46.03471654673324, "lon": -34.50243337588096, "alt_km": 877.9682329413808, "timestamp": "2025-12-01T03:58:49.145885+00:00", "meta": {"OBJECT_NAME": "COSMOS 2251 DEB", "OBJECT_ID": "1993-036WE", "EPOCH": "2025-11-30T20:52:13.789056", "MEAN_MOTION": 14.21725353, "ECCENTRICITY": 0.0144422, "INCLINATION": 73.7296, "RA_OF_ASC_NODE": 128.4136, "ARG_OF_PERICENTER": 349.8495, "MEAN_ANOMALY": 164.4303, "EPHEMERIS_TYPE": 0, "CLASSIFICATION_TYPE": "U", "NORAD_CAT_ID": 34609, "ELEMENT_SET_NO": 999, "REV_AT_EPOCH": 86463, "BSTAR": 0.0006441, "MEAN_MOTION_DOT": 1.546e-05, "MEAN_MOTION_DDOT": 0, "GROUP": "cosmos-2251-debris"}, "tle": {"line1": "1 34609U 93036WE  25334.86960404  .00001546  00000+0  64410-3 0  9990", "line2": "2 34609  73.7296 128.4136 0144422 349.8495 164.4303 14.21725353864633"}}, "geometry": {"type": "Point", "coordinates": [-34.50243337588096, -46.03471654673324]}}, {"type": "Feature", "properties": {"norad_id": 34610, "name": "COSMOS 2251 DEB", "group": "cosmos-2251-debris", "lat": -65.16677078694148, "lon": -115.64764529795369, "alt_km": 952.9420110114897, "timestamp": "2025-12-01T03:58:49.145895+00:00", "meta": {"OBJECT_NAME": "COSMOS 2251 DEB", "OBJECT_ID": "1993-036WF", "EPOCH": "2025-11-30T06:07:52.738464", "MEAN_MOTION": 14.06903675, "ECCENTRICITY": 0.01800822, "INCLINATION": 74.0192, "RA_OF_ASC_NODE": 284.2081, "ARG_OF_PERICENTER": 57.5985, "MEAN_ANOMALY": 304.2432, "EPHEMERIS_TYPE": 0, "CLASSIFICATION_TYPE": "U", "NORAD_CAT_ID": 34610, "ELEMENT_SET_NO": 999, "REV_AT_EPOCH": 85384, "BSTAR": 0.0022373611, "MEAN_MOTION_DOT": 4.299e-05, "MEAN_MOTION_DDOT": 0, "GROUP": "cosmos-2251-debris"}, "tle": {"line1": "1 34610U 93036WF  25334.25547151  .00004299  00000+0  22374-2 0  9995", "line2": "2 34610  74.0192 284.2081 0180082  57.5985 304.2432 14.06903675853849"}}, "geometry": {"type": "Point", "coordinates": [-115.64764529795369, -65.16677078694148]}}, {"type": "Feature", "properties": {"norad_id": 34611, "name": "COSMOS 2251 DEB", "group": "cosmos-2251-debris", "lat": -73.98679762770264, "lon": 38.229354551510255, "alt_km": 674.5640978867559, "timestamp": "2025-12-01T03:58:49.145905+00:00", "meta": {"OBJECT_NAME": "COSMOS 2251 DEB", "OBJECT_ID": "1993-036WG", "EPOCH": "2025-11-30T20:53:57.022368", "MEAN_MOTION": 14.69118032, "ECCENTRICITY": 0.0024291, "INCLINATION": 74.0518, "RA_OF_ASC_NODE": 123.9275, "ARG_OF_PERICENTER": 169.2628, "MEAN_ANOMALY": 342.001, "EPHEMERIS_TYPE": 0, "CLASSIFICATION_TYPE": "U", "NORAD_CAT_ID": 34611, "ELEMENT_SET_NO": 999, "REV_AT_EPOCH": 88216, "BSTAR": 0.0011604, "MEAN_MOTION_DOT": 6.827e-05, "MEAN_MOTION_DDOT": 0, "GROUP": "cosmos-2251-debris"}, "tle": {"line1": "1 34611U 93036WG  25334.87079887  .00006827  00000+0  11604-2 0  9993", "line2": "2 34611  74.0518 123.9275 0024291 169.2628 342.0010 14.69118032882163"}}, "geometry": {"type": "Point", "coordinates": [38.229354551510255, -73.98679762770264]}}, {"type": "Feature", "properties": {"norad_id": 34613, "name": "COSMOS 2251 DEB", "group": "cosmos-2251-debris", "lat": -14.835055666867925, "lon": -64.8004163303314, "alt_km": 876.5738734528531, "timestamp": "2025-12-01T03:58:49.145915+00:00", "meta": {"OBJECT_NAME": "COSMOS 2251 DEB", "OBJECT_ID": "1993-036WJ", "EPOCH": "2025-11-30T04:35:01.241376", "MEAN_MOTION": 14.26317956, "ECCENTRICITY": 0.01102332, "INCLINATION": 73.9632, "RA_OF_ASC_NODE": 301.3379, "ARG_OF_PERICENTER": 136.4543, "MEAN_ANOMALY": 245.1647, "EPHEMERIS_TYPE": 0, "CLASSIFICATION_TYPE": "U", "NORAD_CAT_ID": 34613, "ELEMENT_SET_NO": 999, "REV_AT_EPOCH": 86284, "BSTAR": 0.0011546679, "MEAN_MOTION_DOT": 2.932e-05, "MEAN_MOTION_DDOT": 0, "GROUP": "cosmos-2251-debris"}, "tle": {"line1": "1 34613U 93036WJ  25334.19098659  .00002932  00000+0  11547-2 0  9997", "line2": "2 34613  73.9632 301.3379 0110233 136.4543 245.1647 14.26317956862842"}}, "geometry": {"type": "Point", "coordinates": [-64.8004163303314, -14.835055666867925]}}]}